[{"OBJECT_NAME":"SITRO-AIS 5 (KATYS)","OBJECT_ID":"2023-091L","EPOCH":"2026-03-09T22:36:44.932608","MEAN_MOTION":15.27079182,"ECCENTRICITY":0.00133776,"INCLINATION":97.5176,"RA_OF_ASC_NODE":132.0172,"ARG_OF_PERICENTER":94.5677,"MEAN_ANOMALY":265.709,"EPHEMERIS_TYPE":0,"CLASSIFICATION_TYPE":"U","NORAD_CAT_ID":57176,"ELEMENT_SET_NO":999,"REV_AT_EPOCH":14918,"BSTAR":0.00057530772,"MEAN_MOTION_DOT":0.00015262,"MEAN_MOTION_DDOT":0},{"OBJECT_NAME":"STARLINK-32013","OBJECT_ID":"2024-117N","EPOCH":"2026-03-09T07:03:22.813056","MEAN_MOTION":15.30196531,"ECCENTRICITY":0.00013293,"INCLINATION":53.1623,"RA_OF_ASC_NODE":39.1216,"ARG_OF_PERICENTER":104.0281,"MEAN_ANOMALY":256.0868,"EPHEMERIS_TYPE":0,"CLASSIFICATION_TYPE":"U","NORAD_CAT_ID":60103,"ELEMENT_SET_NO":999,"REV_AT_EPOCH":9682,"BSTAR":-4.6540836e-5,"MEAN_MOTION_DOT":-1.737e-5,"MEAN_MOTION_DDOT":0}]
